[{"OBJECT_NAME":"STARLINK-32374","OBJECT_ID":"2024-224G","EPOCH":"2026-03-09T06:18:43.497216","MEAN_MOTION":15.27589886,"ECCENTRICITY":0.00020188,"INCLINATION":43,"RA_OF_ASC_NODE":160.6086,"ARG_OF_PERICENTER":256.0897,"MEAN_ANOMALY":103.973,"EPHEMERIS_TYPE":0,"CLASSIFICATION_TYPE":"U","NORAD_CAT_ID":62145,"ELEMENT_SET_NO":999,"REV_AT_EPOCH":7241,"BSTAR":0.001285355,"MEAN_MOTION_DOT":0.00035289,"MEAN_MOTION_DDOT":0},{"OBJECT_NAME":"239ALFEROV (RS61S)","OBJECT_ID":"2025-155F","EPOCH":"2026-03-09T21:46:33.382848","MEAN_MOTION":15.29933217,"ECCENTRICITY":0.00084878,"INCLINATION":97.4469,"RA_OF_ASC_NODE":37.6373,"ARG_OF_PERICENTER":151.5904,"MEAN_ANOMALY":208.58,"EPHEMERIS_TYPE":0,"CLASSIFICATION_TYPE":"U","NORAD_CAT_ID":64881,"ELEMENT_SET_NO":999,"REV_AT_EPOCH":6561,"BSTAR":0.00067233359,"MEAN_MOTION_DOT":0.00019457,"MEAN_MOTION_DDOT":0}]
